OBJECT_NAME,OBJECT_ID,EPOCH,MEAN_MOTION,ECCENTRICITY,INCLINATION,RA_OF_ASC_NODE,ARG_OF_PERICENTER,MEAN_ANOMALY,EPHEMERIS_TYPE,CLASSIFICATION_TYPE,NORAD_CAT_ID,ELEMENT_SET_NO,REV_AT_EPOCH,BSTAR,MEAN_MOTION_DOT,MEAN_MOTION_DDOT
KUIPER-00533,2026-140P,2026-06-27T12:00:02.000160,15.37950720,.0007474,51.8797,348.8495,251.7248,338.0208,0,U,69605,999,223,.59888E-3,.22393E-3,0
KUIPER-00534,2026-140Q,2026-06-27T12:00:02.000160,15.40110909,.0014796,51.8820,348.6991,197.7357,106.8643,0,U,69606,999,251,.68905E-3,.27834E-3,0
KUIPER-00537,2026-140R,2026-06-27T12:00:02.000160,15.35756919,.0008266,51.8822,349.0066,350.7081,164.3923,0,U,69607,999,249,.89504E-3,.31386E-3,0
KUIPER-00538,2026-140S,2026-06-27T12:00:02.000160,15.37300872,.0005391,51.8822,348.8991,268.7163,298.2557,0,U,69608,999,273,.58187E-3,.21275E-3,0
KUIPER-00540,2026-140T,2026-06-27T12:00:02.000160,15.36719120,.0005434,51.8829,348.9480,319.7067,224.1469,0,U,69609,999,222,.5739E-3,.20581E-3,0
KUIPER-00541,2026-140U,2026-06-27T12:00:02.000160,15.37947716,.00069,51.8831,348.8625,247.7950,337.9269,0,U,69610,999,273,.60124E-3,.22478E-3,0
KUIPER-00542,2026-140V,2026-06-27T12:00:02.000160,15.38094427,.0007291,51.8796,348.8403,229.3833,4.9163,0,U,69611,999,183,.59979E-3,.22534E-3,0
KUIPER-00543,2026-140W,2026-06-27T12:00:02.000160,15.36411548,.0006695,51.8799,348.9638,336.4326,195.9778,0,U,69612,999,207,.58915E-3,.20933E-3,0
KUIPER-00544,2026-140X,2026-06-27T12:00:02.000160,15.37790575,.0006382,51.8799,348.8678,247.6968,333.0366,0,U,69613,999,233,.59375E-3,.22076E-3,0
KUIPER-00546,2026-140Y,2026-06-27T12:00:02.000160,15.38470705,.0015425,51.8791,348.7115,196.5710,101.5973,0,U,69614,999,276,.68748E-3,.26301E-3,0
KUIPER-00547,2026-140Z,2026-06-27T12:00:02.000160,15.39094071,.0011622,51.8827,348.7744,215.9451,52.4954,0,U,69615,999,130,.66372E-3,.25861E-3,0
KUIPER-00549,2026-140AA,2026-06-27T12:00:02.000160,15.36941610,.0006144,51.8804,348.9276,311.9119,239.2135,0,U,69616,999,267,.56958E-3,.20574E-3,0
KUIPER-00550,2026-140AB,2026-06-27T12:00:02.000160,15.35318097,.0006096,51.8810,349.0201,356.9054,148.7807,0,U,69617,999,206,.59943E-3,.20558E-3,0
KUIPER-00551,2026-140AC,2026-06-27T12:00:02.000160,15.39587547,.0013515,51.8792,348.7339,208.1311,78.7767,0,U,69618,999,130,.66993E-3,.26561E-3,0
KUIPER-00554,2026-140AD,2026-06-27T12:00:02.000160,15.39231091,.0011938,51.8793,348.7632,216.4693,55.9476,0,U,69619,999,248,.66008E-3,.25837E-3,0
KUIPER-00555,2026-140AE,2026-06-27T12:00:02.000160,15.39454002,.0012552,51.8825,348.7498,209.5117,70.7458,0,U,69620,999,228,.66437E-3,.26209E-3,0
KUIPER-00556,2026-140AF,2026-06-27T12:00:02.000160,15.37883790,.0012694,51.8812,348.7575,198.5451,77.3229,0,U,69621,999,248,.62922E-3,.23538E-3,0
KUIPER-00557,2026-140AG,2026-06-27T12:00:02.000160,15.38774943,.0010633,51.8817,348.7939,223.6068,34.8843,0,U,69622,999,164,.664E-3,.25591E-3,0
KUIPER-00560,2026-140AH,2026-06-27T12:00:02.000160,15.38444174,.0008692,51.8796,348.8199,231.9107,12.4081,0,U,69623,999,239,.6038E-3,.22959E-3,0
KUIPER-00561,2026-140AJ,2026-06-27T12:00:02.000160,15.38238962,.0007962,51.8830,348.8343,232.2833,7.1376,0,U,69624,999,260,.65064E-3,.24605E-3,0
KUIPER-00564,2026-140AK,2026-06-27T12:00:02.000160,15.38572209,.0009584,51.8818,348.8112,222.4774,27.4773,0,U,69625,999,206,.63637E-3,.24333E-3,0
KUIPER-00567,2026-140AL,2026-06-27T12:00:02.000160,15.38096117,.0013434,51.8781,348.7431,201.0668,81.2772,0,U,69626,999,279,.67484E-3,.25466E-3,0
KUIPER-00573,2026-140AM,2026-06-27T12:00:02.000160,15.37226662,.0009963,51.8793,348.8038,213.4695,39.0100,0,U,69627,999,273,.59789E-3,.21843E-3,0
CENTISPACE-1 GROUP 05 OBJECT J,2026-138J,2026-06-27T12:28:06.211776,14.15850106,.0008376,55.1413,242.9855,302.3068,57.7094,0,U,69636,999,145,-.14003E-3,-.43E-5,0
