KUIPER-00533            
1 69605U 26140P   26178.50002315  .00022393  00000+0  59888-3 0  9998
2 69605  51.8797 348.8495 0007474 251.7248 338.0208 15.37950720  2237
KUIPER-00534            
1 69606U 26140Q   26178.50002315  .00027834  00000+0  68905-3 0  9994
2 69606  51.8820 348.6991 0014796 197.7357 106.8643 15.40110909  2515
KUIPER-00537            
1 69607U 26140R   26178.50002315  .00031386  00000+0  89504-3 0  9990
2 69607  51.8822 349.0066 0008266 350.7081 164.3923 15.35756919  2494
KUIPER-00538            
1 69608U 26140S   26178.50002315  .00021275  00000+0  58187-3 0  9990
2 69608  51.8822 348.8991 0005391 268.7163 298.2557 15.37300872  2736
KUIPER-00540            
1 69609U 26140T   26178.50002315  .00020581  00000+0  57390-3 0  9995
2 69609  51.8829 348.9480 0005434 319.7067 224.1469 15.36719120  2229
KUIPER-00541            
1 69610U 26140U   26178.50002315  .00022478  00000+0  60124-3 0  9993
2 69610  51.8831 348.8625 0006900 247.7950 337.9269 15.37947716  2736
KUIPER-00542            
1 69611U 26140V   26178.50002315  .00022534  00000+0  59979-3 0  9993
2 69611  51.8796 348.8403 0007291 229.3833   4.9163 15.38094427  1838
KUIPER-00543            
1 69612U 26140W   26178.50002315  .00020933  00000+0  58915-3 0  9994
2 69612  51.8799 348.9638 0006695 336.4326 195.9778 15.36411548  2072
KUIPER-00544            
1 69613U 26140X   26178.50002315  .00022076  00000+0  59375-3 0  9996
2 69613  51.8799 348.8678 0006382 247.6968 333.0366 15.37790575  2332
KUIPER-00546            
1 69614U 26140Y   26178.50002315  .00026301  00000+0  68748-3 0  9996
2 69614  51.8791 348.7115 0015425 196.5710 101.5973 15.38470705  2765
KUIPER-00547            
1 69615U 26140Z   26178.50002315  .00025861  00000+0  66372-3 0  9998
2 69615  51.8827 348.7744 0011622 215.9451  52.4954 15.39094071  1308
KUIPER-00549            
1 69616U 26140AA  26178.50002315  .00020574  00000+0  56958-3 0  9994
2 69616  51.8804 348.9276 0006144 311.9119 239.2135 15.36941610  2671
KUIPER-00550            
1 69617U 26140AB  26178.50002315  .00020558  00000+0  59943-3 0  9994
2 69617  51.8810 349.0201 0006096 356.9054 148.7807 15.35318097  2061
KUIPER-00551            
1 69618U 26140AC  26178.50002315  .00026561  00000+0  66993-3 0  9998
2 69618  51.8792 348.7339 0013515 208.1311  78.7767 15.39587547  1302
KUIPER-00554            
1 69619U 26140AD  26178.50002315  .00025837  00000+0  66008-3 0  9991
2 69619  51.8793 348.7632 0011938 216.4693  55.9476 15.39231091  2486
KUIPER-00555            
1 69620U 26140AE  26178.50002315  .00026209  00000+0  66437-3 0  9993
2 69620  51.8825 348.7498 0012552 209.5117  70.7458 15.39454002  2283
KUIPER-00556            
1 69621U 26140AF  26178.50002315  .00023538  00000+0  62922-3 0  9991
2 69621  51.8812 348.7575 0012694 198.5451  77.3229 15.37883790  2480
KUIPER-00557            
1 69622U 26140AG  26178.50002315  .00025591  00000+0  66400-3 0  9998
2 69622  51.8817 348.7939 0010633 223.6068  34.8843 15.38774943  1642
KUIPER-00560            
1 69623U 26140AH  26178.50002315  .00022959  00000+0  60380-3 0  9995
2 69623  51.8796 348.8199 0008692 231.9107  12.4081 15.38444174  2395
KUIPER-00561            
1 69624U 26140AJ  26178.50002315  .00024605  00000+0  65064-3 0  9990
2 69624  51.8830 348.8343 0007962 232.2833   7.1376 15.38238962  2603
KUIPER-00564            
1 69625U 26140AK  26178.50002315  .00024333  00000+0  63637-3 0  9993
2 69625  51.8818 348.8112 0009584 222.4774  27.4773 15.38572209  2062
KUIPER-00567            
1 69626U 26140AL  26178.50002315  .00025466  00000+0  67484-3 0  9996
2 69626  51.8781 348.7431 0013434 201.0668  81.2772 15.38096117  2795
KUIPER-00573            
1 69627U 26140AM  26178.50002315  .00021843  00000+0  59789-3 0  9991
2 69627  51.8793 348.8038 0009963 213.4695  39.0100 15.37226662  2731
CENTISPACE-1 GROUP 05 O*
1 69636U 26138J   26178.51951634 -.00000430  00000+0 -14003-3 0  9997
2 69636  55.1413 242.9855 0008376 302.3068  57.7094 14.15850106  1455
